{
    "links": {
        "self": "http://www.neowsapp.com/rest/v1/neo/3623996?api_key=iIulBulltgU6a56xZRHN4H3l9WmuAYTsLGpBGhQ2"
    },
    "id": "3623996",
    "neo_reference_id": "3623996",
    "name": "(2013 AB65)",
    "designation": "2013 AB65",
    "nasa_jpl_url": "http://ssd.jpl.nasa.gov/sbdb.cgi?sstr=3623996",
    "absolute_magnitude_h": 27.6,
    "estimated_diameter": {
        "kilometers": {
            "estimated_diameter_min": 0.0080270317,
            "estimated_diameter_max": 0.0179489885
        },
        "meters": {
            "estimated_diameter_min": 8.0270316728,
            "estimated_diameter_max": 17.948988478
        },
        "miles": {
            "estimated_diameter_min": 0.0049877647,
            "estimated_diameter_max": 0.0111529809
        },
        "feet": {
            "estimated_diameter_min": 26.3354065935,
            "estimated_diameter_max": 58.8877593581
        }
    },
    "is_potentially_hazardous_asteroid": false,
    "close_approach_data": [
        {
            "close_approach_date": "2013-01-10",
            "close_approach_date_full": "2013-Jan-10 22:01",
            "epoch_date_close_approach": 1357855260000,
            "relative_velocity": {
                "kilometers_per_second": "24.4440542084",
                "kilometers_per_hour": "87998.5951501381",
                "miles_per_hour": "54678.9048587067"
            },
            "miss_distance": {
                "astronomical": "0.0040039275",
                "lunar": "1.5575277975",
                "kilometers": "598979.025634425",
                "miles": "372188.307928065"
            },
            "orbiting_body": "Moon"
        },
        {
            "close_approach_date": "2013-01-11",
            "close_approach_date_full": "2013-Jan-11 02:21",
            "epoch_date_close_approach": 1357870860000,
            "relative_velocity": {
                "kilometers_per_second": "24.3237575766",
                "kilometers_per_hour": "87565.5272758583",
                "miles_per_hour": "54409.8133231576"
            },
            "miss_distance": {
                "astronomical": "0.0040500933",
                "lunar": "1.5754862937",
                "kilometers": "605885.330981271",
                "miles": "376479.6870766998"
            },
            "orbiting_body": "Earth"
        }
    ],
    "orbital_data": {
        "orbit_id": "5",
        "orbit_determination_date": "2017-04-06 08:47:15",
        "first_observation_date": "2013-01-12",
        "last_observation_date": "2013-01-15",
        "data_arc_in_days": 3,
        "observations_used": 28,
        "orbit_uncertainty": "8",
        "minimum_orbit_intersection": ".00202217",
        "jupiter_tisserand_invariant": "3.652",
        "epoch_osculation": "2456306.5",
        "eccentricity": ".7497315707526117",
        "semi_major_axis": "1.81211941116046",
        "inclination": "2.442868983319901",
        "ascending_node_longitude": "113.8140751525767",
        "orbital_period": "891.0019317278804",
        "perihelion_distance": ".4535162786398307",
        "perihelion_argument": "252.2607955139514",
        "aphelion_distance": "3.17072254368109",
        "perihelion_time": "2456258.077888408032",
        "mean_anomaly": "19.56444711551125",
        "mean_motion": ".4040395280646227",
        "equinox": "J2000",
        "orbit_class": {
            "orbit_class_type": "APO",
            "orbit_class_description": "Near-Earth asteroid orbits which cross the Earth’s orbit similar to that of 1862 Apollo",
            "orbit_class_range": "a (semi-major axis) > 1.0 AU; q (perihelion) < 1.017 AU"
        }
    },
    "is_sentry_object": false
}